KUIPER-00061            
1 64521U 25134X   25267.33336806 -.01031918  00000+0 -72295-1 0  9997
2 64521  51.8906 245.6519 0008454  76.3499 148.8681 15.07497721  3552
KUIPER-00062            
1 64522U 25134Y   25267.33336806 -.00555566  00000+0 -44941-1 0  9994
2 64522  51.8882 251.9800 0010433  89.1587 329.5998 15.01793412  4683
KUIPER-00063            
1 64523U 25134Z   25266.68085499  .00006380  00000+0  87095-3 0  9993
2 64523  51.9006 256.4751 0004474  46.9629 313.1707 14.79644456 15275
KUIPER-00064            
1 64524U 25134AA  25267.33336806 -.00022579  00000+0 -29265-2 0  9992
2 64524  51.9004 250.7800 0005591 149.4579 187.0336 14.80150095  4413
KUIPER-00065            
1 64525U 25134AB  25267.18527879  .00006413  00000+0  87193-3 0  9990
2 64525  51.8994 256.4803 0012016  91.3076 268.9263 14.79780048 15307
KUIPER-00066            
1 64526U 25134AC  25267.23125666  .00029953  00000+0  14476-2 0  9992
2 64526  51.8890 248.4109 0006440  77.2443 282.9255 15.18367180 15431
KUIPER-00069            
1 64816U 25151A   25267.32386764  .00063789  00000+0  17023-2 0  9997
2 64816  51.8784 309.4225 0007952  31.7120 328.4345 15.37495282 11942
KUIPER-00070            
1 64817U 25151B   25267.31944574  .00005344  00000+0  73194-3 0  9991
2 64817  51.8993 321.1774 0009662  67.6865 292.5121 14.79772106 11782
